{
  "norad_id": 66885,
  "name": "STARLINK-35954",
  "history": [
    {
      "epoch": "2026-03-28T20:17:50.327232Z",
      "apogee_km": 475.73508995618613,
      "perigee_km": 474.7457363928197,
      "latitude_deg": 4.782458140863157e-05,
      "longitude_deg": 164.71262189850208,
      "height_km": 476.14313722567937,
      "semi_major_axis_km": 6853.377413174502,
      "eccentricity": 7.218e-05,
      "inclination_deg": 53.1584,
      "raan_deg": 295.4326,
      "arg_perigee_deg": 90.4749,
      "mean_anomaly_deg": 269.6335,
      "mean_motion_rev_day": 15.30191512
    },
    {
      "epoch": "2026-03-28T23:25:57.114336Z",
      "apogee_km": 475.7250067424866,
      "perigee_km": 474.8093919414541,
      "latitude_deg": 1.976157227879333e-05,
      "longitude_deg": 116.9501624840115,
      "height_km": 476.2179346896765,
      "semi_major_axis_km": 6853.4041993419705,
      "eccentricity": 6.68e-05,
      "inclination_deg": 53.1583,
      "raan_deg": 294.8272,
      "arg_perigee_deg": 96.528,
      "mean_anomaly_deg": 263.5797,
      "mean_motion_rev_day": 15.30182541
    },
    {
      "epoch": "2026-03-29T22:56:45.693888Z",
      "apogee_km": 475.75417761331664,
      "perigee_km": 474.66723666696544,
      "latitude_deg": -6.80053844455732e-06,
      "longitude_deg": 118.72986347123076,
      "height_km": 476.1664324379008,
      "semi_major_axis_km": 6853.347707140141,
      "eccentricity": 7.93e-05,
      "inclination_deg": 53.1586,
      "raan_deg": 290.275,
      "arg_perigee_deg": 96.0369,
      "mean_anomaly_deg": 264.0722,
      "mean_motion_rev_day": 15.30201461
    },
    {
      "epoch": "2026-03-29T22:56:45.694752Z",
      "apogee_km": 475.754451747227,
      "perigee_km": 474.6669625330569,
      "latitude_deg": -1.0485310087294589e-05,
      "longitude_deg": 118.72985711593789,
      "height_km": 476.1664612698408,
      "semi_major_axis_km": 6853.347707140141,
      "eccentricity": 7.934e-05,
      "inclination_deg": 53.1586,
      "raan_deg": 290.275,
      "arg_perigee_deg": 96.0369,
      "mean_anomaly_deg": 264.0722,
      "mean_motion_rev_day": 15.30201461
    },
    {
      "epoch": "2026-03-30T13:03:14.757120Z",
      "apogee_km": 475.99700495114666,
      "perigee_km": 474.36481875725894,
      "latitude_deg": 7.328731604882838e-05,
      "longitude_deg": -96.19967098063697,
      "height_km": 475.7316900448352,
      "semi_major_axis_km": 6853.317911854203,
      "eccentricity": 0.00011908,
      "inclination_deg": 53.1584,
      "raan_deg": 287.5459,
      "arg_perigee_deg": 64.8069,
      "mean_anomaly_deg": 295.3056,
      "mean_motion_rev_day": 15.3021144
    },
    {
      "epoch": "2026-03-30T22:27:32.166144Z",
      "apogee_km": 475.93762624408555,
      "perigee_km": 474.1355157218595,
      "latitude_deg": 3.891932101523195e-05,
      "longitude_deg": 120.51972338207456,
      "height_km": 475.58528827467,
      "semi_major_axis_km": 6853.173570982972,
      "eccentricity": 0.00013148,
      "inclination_deg": 53.1581,
      "raan_deg": 285.7241,
      "arg_perigee_deg": 67.1942,
      "mean_anomaly_deg": 292.9198,
      "mean_motion_rev_day": 15.30259784
    },
    {
      "epoch": "2026-03-31T18:50:14.828640Z",
      "apogee_km": 475.8619855206225,
      "perigee_km": 474.7503570382414,
      "latitude_deg": -3.138832671215763e-05,
      "longitude_deg": 170.0603958045986,
      "height_km": 476.16487503106305,
      "semi_major_axis_km": 6853.443171279431,
      "eccentricity": 8.11e-05,
      "inclination_deg": 53.16,
      "raan_deg": 281.7795,
      "arg_perigee_deg": 85.8749,
      "mean_anomaly_deg": 274.2344,
      "mean_motion_rev_day": 15.30169489
    },
    {
      "epoch": "2026-04-01T12:04:50.928672Z",
      "apogee_km": 475.3820683588301,
      "perigee_km": 475.1120450269964,
      "latitude_deg": 1.266090097014554e-05,
      "longitude_deg": -92.63694693166947,
      "height_km": 476.2793371288136,
      "semi_major_axis_km": 6853.384056692913,
      "eccentricity": 1.97e-05,
      "inclination_deg": 53.1588,
      "raan_deg": 278.4407,
      "arg_perigee_deg": 169.51,
      "mean_anomaly_deg": 190.5905,
      "mean_motion_rev_day": 15.30189287
    },
    {
      "epoch": "2026-04-02T05:19:25.660992Z",
      "apogee_km": 475.17577328824154,
      "perigee_km": 475.02911396414675,
      "latitude_deg": 1.757253577319891e-05,
      "longitude_deg": 4.673495419636398,
      "height_km": 475.9380118457592,
      "semi_major_axis_km": 6853.239443626194,
      "eccentricity": 1.07e-05,
      "inclination_deg": 53.1596,
      "raan_deg": 275.104,
      "arg_perigee_deg": 331.0553,
      "mean_anomaly_deg": 29.0442,
      "mean_motion_rev_day": 15.30237721
    },
    {
      "epoch": "2026-04-02T20:59:57.782976Z",
      "apogee_km": 476.7723463320517,
      "perigee_km": 473.44893242181206,
      "latitude_deg": -2.7355636793191967e-05,
      "longitude_deg": 125.86204721576021,
      "height_km": 475.80138958904126,
      "semi_major_axis_km": 6853.247639376931,
      "eccentricity": 0.00024247,
      "inclination_deg": 53.1552,
      "raan_deg": 272.0702,
      "arg_perigee_deg": 82.9071,
      "mean_anomaly_deg": 277.2205,
      "mean_motion_rev_day": 15.30234976
    },
    {
      "epoch": "2026-04-03T18:56:42.689472Z",
      "apogee_km": 476.13532653816765,
      "perigee_km": 474.57958329690064,
      "latitude_deg": -1.1118619837716258e-05,
      "longitude_deg": 151.52656666106938,
      "height_km": 476.0122379028701,
      "semi_major_axis_km": 6853.494454917533,
      "eccentricity": 0.0001135,
      "inclination_deg": 53.1571,
      "raan_deg": 267.8231,
      "arg_perigee_deg": 71.7789,
      "mean_anomaly_deg": 288.3335,
      "mean_motion_rev_day": 15.30152314
    }
  ]
}